{
    "links": {
        "self": "http://www.neowsapp.com/rest/v1/neo/3760677?api_key=iIulBulltgU6a56xZRHN4H3l9WmuAYTsLGpBGhQ2"
    },
    "id": "3760677",
    "neo_reference_id": "3760677",
    "name": "(2016 TX19)",
    "designation": "2016 TX19",
    "nasa_jpl_url": "http://ssd.jpl.nasa.gov/sbdb.cgi?sstr=3760677",
    "absolute_magnitude_h": 23.8,
    "estimated_diameter": {
        "kilometers": {
            "estimated_diameter_min": 0.046190746,
            "estimated_diameter_max": 0.1032856481
        },
        "meters": {
            "estimated_diameter_min": 46.1907460282,
            "estimated_diameter_max": 103.2856480504
        },
        "miles": {
            "estimated_diameter_min": 0.0287015901,
            "estimated_diameter_max": 0.0641787064
        },
        "feet": {
            "estimated_diameter_min": 151.544447199,
            "estimated_diameter_max": 338.8636855496
        }
    },
    "is_potentially_hazardous_asteroid": false,
    "close_approach_data": [
        {
            "close_approach_date": "2016-10-29",
            "close_approach_date_full": "2016-Oct-29 14:42",
            "epoch_date_close_approach": 1477752120000,
            "relative_velocity": {
                "kilometers_per_second": "4.9671346288",
                "kilometers_per_hour": "17881.684663653",
                "miles_per_hour": "11110.9834511459"
            },
            "miss_distance": {
                "astronomical": "0.1546934714",
                "lunar": "60.1757603746",
                "kilometers": "23141813.824345918",
                "miles": "14379656.3169249484"
            },
            "orbiting_body": "Earth"
        },
        {
            "close_approach_date": "2035-11-05",
            "close_approach_date_full": "2035-Nov-05 09:51",
            "epoch_date_close_approach": 2077869060000,
            "relative_velocity": {
                "kilometers_per_second": "8.5416552803",
                "kilometers_per_hour": "30749.9590089418",
                "miles_per_hour": "19106.8286964172"
            },
            "miss_distance": {
                "astronomical": "0.3120939612",
                "lunar": "121.4045509068",
                "kilometers": "46688591.835382644",
                "miles": "29010945.7110787272"
            },
            "orbiting_body": "Earth"
        }
    ],
    "orbital_data": {
        "orbit_id": "7",
        "orbit_determination_date": "2017-04-06 08:23:09",
        "first_observation_date": "2016-10-09",
        "last_observation_date": "2016-11-20",
        "data_arc_in_days": 42,
        "observations_used": 33,
        "orbit_uncertainty": "7",
        "minimum_orbit_intersection": ".15576",
        "jupiter_tisserand_invariant": "3.543",
        "epoch_osculation": "2459000.5",
        "eccentricity": ".4691795063754984",
        "semi_major_axis": "2.159053133424199",
        "inclination": "5.385544865518409",
        "ascending_node_longitude": "51.45693817708518",
        "orbital_period": "1158.75980573972",
        "perihelion_distance": "1.14606965004576",
        "perihelion_argument": "343.7342452726542",
        "aphelion_distance": "3.172036616802638",
        "perihelion_time": "2458851.487198568318",
        "mean_anomaly": "46.29484751687621",
        "mean_motion": ".3106769825953585",
        "equinox": "J2000",
        "orbit_class": {
            "orbit_class_type": "AMO",
            "orbit_class_description": "Near-Earth asteroid orbits similar to that of 1221 Amor",
            "orbit_class_range": "1.017 AU < q (perihelion) < 1.3 AU"
        }
    },
    "is_sentry_object": false
}